NORAD_CAT_ID,OBJECT_NAME,OBJECT_TYPE,EPOCH,MEAN_MOTION,ECCENTRICITY,INCLINATION,RA_OF_ASC_NODE,ARG_OF_PERICENTER,MEAN_ANOMALY,BSTAR,MEAN_MOTION_DOT,MEAN_MOTION_DDOT,TLE_LINE0,TLE_LINE1,TLE_LINE2,SEMIMAJOR_AXIS,PERIOD,APOGEE,PERIGEE,DECAYED
54179.0,STARLINK-5122,PAYLOAD,2023-12-02 14:04:20,15.08847466,0.0001482,53.2189,121.5223,109.4732,250.642,8.5988e-05,1.081e-05,0.0,0 STARLINK-5122,1 54179U 22141Y   23336.58634655  .00001081  00000-0  85988-4 0  9997,2 54179  53.2189 121.5223 0001482 109.4732 250.6420 15.08847466 60849,6917.858,95.437,540.748,538.697,0.0
54179.0,STARLINK-5122,PAYLOAD,2023-12-02 17:15:06,15.08849354,0.0001318,53.2178,120.9232,75.5249,284.589,0.00010301,1.352e-05,0.0,0 STARLINK-5122,1 54179U 22141Y   23336.71882546  .00001352  00000-0  10301-3 0  9993,2 54179  53.2178 120.9232 0001318  75.5249 284.5890 15.08849354 61097,6917.852,95.437,540.629,538.805,0.0
54179.0,STARLINK-5122,PAYLOAD,2023-12-03 13:55:09,15.08823466,0.0001483,53.2183,117.0515,92.3277,267.7885,-0.00010766,-2e-05,0.0,0 STARLINK-5122,1 54179U 22141Y   23337.57997345 -.00002000  00000-0 -10766-3 0  9990,2 54179  53.2183 117.0515 0001483  92.3277 267.7885 15.08823466 60996,6917.931,95.439,540.822,538.77,0.0
54179.0,STARLINK-5122,PAYLOAD,2023-12-03 18:41:19,15.08821473,0.0001467,53.2186,116.1604,87.3563,272.7597,-0.00012238,-2.234e-05,0.0,0 STARLINK-5122,1 54179U 22141Y   23337.77869748 -.00002234  00000-0 -12238-3 0  9992,2 54179  53.2186 116.1604 0001467  87.3563 272.7597 15.08821473 61254,6917.937,95.439,540.817,538.787,0.0
54179.0,STARLINK-5122,PAYLOAD,2023-12-05 08:50:33,15.08831042,0.0001273,53.2189,109.0244,80.5104,279.6032,0.00021357,3.112e-05,0.0,0 STARLINK-5122,1 54179U 22141Y   23339.36844621  .00003112  00000-0  21357-3 0  9998,2 54179  53.2189 109.0244 0001273  80.5104 279.6032 15.08831042 61498,6917.908,95.438,540.653,538.892,0.0
54179.0,STARLINK-5122,PAYLOAD,2023-12-05 13:36:42,15.08803748,0.0001498,53.2189,108.1446,72.7518,287.3638,0.00081272,0.00012657,0.0,0 STARLINK-5122,1 54179U 22141Y   23339.56716325  .00012657  00000-0  81272-3 0  9995,2 54179  53.2189 108.1446 0001498  72.7518 287.3638 15.08803748 61291,6917.991,95.44,540.893,538.82,0.0
54179.0,STARLINK-5122,PAYLOAD,2023-12-06 11:52:06,15.08840977,0.0001605,53.219,103.9669,115.294,244.8218,3.4008e-05,2.53e-06,0.0,0 STARLINK-5122,1 54179U 22141Y   23340.49451579  .00000253  00000-0  34008-4 0  9991,2 54179  53.2190 103.9669 0001605 115.2940 244.8218 15.08840977 61663,6917.877,95.437,540.853,538.632,0.0
54179.0,STARLINK-5122,PAYLOAD,2023-12-06 13:27:28,15.0879854,0.0002967,53.2173,103.6674,121.5718,238.5564,0.00049198,7.542e-05,0.0,0 STARLINK-5122,1 54179U 22141Y   23340.56074796  .00007542  00000-0  49198-3 0  9994,2 54179  53.2173 103.6674 0002967 121.5718 238.5564 15.08798540 61440,6918.007,95.44,541.925,537.82,0.0
54179.0,STARLINK-5122,PAYLOAD,2023-12-07 13:18:19,15.08690231,0.0002717,53.2186,99.2127,101.0996,259.0301,0.0018832,0.00029688,0.0,0 STARLINK-5122,1 54179U 22141Y   23341.55439469  .00029688  00000-0  18832-2 0  9991,2 54179  53.2186  99.2127 0002717 101.0996 259.0301 15.08690231 61592,6918.338,95.447,542.083,538.323,0.0
54179.0,STARLINK-5122,PAYLOAD,2023-12-07 22:50:35,15.08839733,0.0001363,53.2174,97.4251,110.4049,249.709,8.727e-06,-1.49e-06,0.0,0 STARLINK-5122,1 54179U 22141Y   23341.95180061 -.00000149  00000-0  87270-5 0  9993,2 54179  53.2174  97.4251 0001363 110.4049 249.7090 15.08839733 61881,6917.881,95.438,540.689,538.803,0.0
54179.0,STARLINK-5122,PAYLOAD,2023-12-08 11:33:41,15.08831992,0.0001165,53.2185,95.0525,73.6253,286.4867,5.5909e-05,6.02e-06,0.0,0 STARLINK-5122,1 54179U 22141Y   23342.48172672  .00000602  00000-0  55909-4 0  9997,2 54179  53.2185  95.0525 0001165  73.6253 286.4867 15.08831992 61966,6917.905,95.438,540.576,538.964,0.0
54179.0,STARLINK-5122,PAYLOAD,2023-12-08 13:09:04,15.088334,0.0001212,53.2182,94.7549,75.5028,284.6099,6.5611e-05,7.56e-06,0.0,0 STARLINK-5122,1 54179U 22141Y   23342.54796577  .00000756  00000-0  65611-4 0  9991,2 54179  53.2182  94.7549 0001212  75.5028 284.6099 15.08833400 61748,6917.901,95.438,540.604,538.927,0.0
54179.0,STARLINK-5122,PAYLOAD,2023-12-09 12:59:51,15.08835811,0.0001251,53.218,90.2941,75.176,284.937,2.083e-05,4.4e-07,0.0,0 STARLINK-5122,1 54179U 22141Y   23343.54156965  .00000044  00000-0  20830-4 0  9997,2 54179  53.2180  90.2941 0001251  75.1760 284.9370 15.08835811 61894,6917.893,95.438,540.624,538.893,0.0
54179.0,STARLINK-5122,PAYLOAD,2023-12-10 14:26:01,15.08840142,0.0001302,53.2187,85.5365,77.6497,282.4641,4.6203e-05,4.48e-06,0.0,0 STARLINK-5122,1 54179U 22141Y   23344.60140755  .00000448  00000-0  46203-4 0  9995,2 54179  53.2187  85.5365 0001302  77.6497 282.4641 15.08840142 62055,6917.88,95.438,540.646,538.844,0.0
54179.0,STARLINK-5122,PAYLOAD,2023-12-11 14:16:48,15.08842332,0.0001423,53.2188,81.0756,67.5333,292.5809,5.239e-05,5.46e-06,0.0,0 STARLINK-5122,1 54179U 22141Y   23345.59500660  .00000546  00000-0  52390-4 0  9992,2 54179  53.2188  81.0756 0001423  67.5333 292.5809 15.08842332 62200,6917.873,95.437,540.723,538.754,0.0
54179.0,STARLINK-5122,PAYLOAD,2023-12-12 10:56:49,15.08840409,0.0001711,53.2197,77.2095,60.2359,299.8803,5.2628e-06,-2.04e-06,0.0,0 STARLINK-5122,1 54179U 22141Y   23346.45612995 -.00000204  00000-0  52628-5 0  9990,2 54179  53.2197  77.2095 0001711  60.2359 299.8803 15.08840409 62567,6917.879,95.438,540.928,538.56,0.0
54179.0,STARLINK-5122,PAYLOAD,2023-12-12 12:32:12,15.08840947,0.0001749,53.2196,76.911,59.3467,300.7698,8.1362e-06,-1.59e-06,0.0,0 STARLINK-5122,1 54179U 22141Y   23346.52236943 -.00000159  00000-0  81362-5 0  9999,2 54179  53.2196  76.9110 0001749  59.3467 300.7698 15.08840947 62347,6917.877,95.437,540.952,538.533,0.0
54179.0,STARLINK-5122,PAYLOAD,2023-12-13 12:22:59,15.08844654,0.0001412,53.2181,72.4545,71.2147,288.8998,4.4872e-05,4.26e-06,0.0,0 STARLINK-5122,1 54179U 22141Y   23347.51596307  .00000426  00000-0  44872-4 0  9992,2 54179  53.2181  72.4545 0001412  71.2147 288.8998 15.08844654 62493,6917.866,95.437,540.708,538.754,0.0
54179.0,STARLINK-5122,PAYLOAD,2023-12-14 12:13:47,15.08831551,0.0001266,53.2182,67.9896,93.114,266.9997,-3.3698e-05,-8.24e-06,0.0,0 STARLINK-5122,1 54179U 22141Y   23348.50957607 -.00000824  00000-0 -33698-4 0  9994,2 54179  53.2182  67.9896 0001266  93.1140 266.9997 15.08831551 62875,6917.906,95.438,540.647,538.895,0.0
54179.0,STARLINK-5122,PAYLOAD,2023-12-15 12:04:33,15.08845983,0.0001233,53.2182,63.5296,92.6967,267.4166,1.8567e-05,8e-08,0.0,0 STARLINK-5122,1 54179U 22141Y   23349.50316798  .00000008  00000-0  18567-4 0  9995,2 54179  53.2182  63.5296 0001233  92.6967 267.4166 15.08845983 63022,6917.862,95.437,540.58,538.874,0.0
54179.0,STARLINK-5122,PAYLOAD,2023-12-16 10:19:58,15.08836114,0.0001404,53.2187,59.3669,99.3709,260.7442,5.792e-05,6.34e-06,0.0,0 STARLINK-5122,1 54179U 22141Y   23350.43053591  .00000634  00000-0  57920-4 0  9999,2 54179  53.2187  59.3669 0001404  99.3709 260.7442 15.08836114 63166,6917.892,95.438,540.729,538.786,0.0
54179.0,STARLINK-5122,PAYLOAD,2023-12-17 11:46:08,15.08840283,0.0001417,53.2186,54.6102,90.1621,269.9534,1.533e-05,-4.4e-07,0.0,0 STARLINK-5122,1 54179U 22141Y   23351.49037784 -.00000044  00000-0  15330-4 0  9997,2 54179  53.2186  54.6102 0001417  90.1621 269.9534 15.08840283 63324,6917.88,95.438,540.725,538.764,0.0
54179.0,STARLINK-5122,PAYLOAD,2023-12-18 11:36:54,15.08824355,0.0001691,53.2191,50.1486,74.9103,285.2076,0.00057223,8.827e-05,0.0,0 STARLINK-5122,1 54179U 22141Y   23352.48396813  .00008827  00000-0  57223-3 0  9990,2 54179  53.2191  50.1486 0001691  74.9103 285.2076 15.08824355 63240,6917.928,95.439,540.963,538.623,0.0
54179.0,STARLINK-5122,PAYLOAD,2023-12-19 11:27:42,15.08842869,0.0001425,53.2186,45.6917,89.9563,270.1593,3.8232e-05,3.21e-06,0.0,0 STARLINK-5122,1 54179U 22141Y   23353.47757386  .00000321  00000-0  38232-4 0  9997,2 54179  53.2186  45.6917 0001425  89.9563 270.1593 15.08842869 63622,6917.872,95.437,540.722,538.751,0.0
54179.0,STARLINK-5122,PAYLOAD,2023-12-20 09:43:06,15.08841912,0.0001725,53.2199,41.5251,78.2138,281.9048,-0.00013008,-2.358e-05,0.0,0 STARLINK-5122,1 54179U 22141Y   23354.40494110 -.00002358  00000-0 -13008-3 0  9991,2 54179  53.2199  41.5251 0001725  78.2138 281.9048 15.08841912 63762,6917.875,95.437,540.933,538.546,0.0
54179.0,STARLINK-5122,PAYLOAD,2023-12-21 07:58:30,15.08823607,0.0001826,53.2198,37.3635,114.0711,246.0473,0.0004238,6.46e-05,0.0,0 STARLINK-5122,1 54179U 22141Y   23355.33229749  .00006460  00000-0  42380-3 0  9999,2 54179  53.2198  37.3635 0001826 114.0711 246.0473 15.08823607 63673,6917.93,95.439,541.059,538.532,0.0
54179.0,STARLINK-5122,PAYLOAD,2023-12-22 09:24:40,15.08842221,0.0001617,53.2197,32.6052,93.7457,266.372,7.7483e-05,9.45e-06,0.0,0 STARLINK-5122,1 54179U 22141Y   23356.39213980  .00000945  00000-0  77483-4 0  9991,2 54179  53.2197  32.6052 0001617  93.7457 266.3720 15.08842221 64068,6917.874,95.437,540.857,538.62,0.0
54179.0,STARLINK-5122,PAYLOAD,2023-12-23 09:15:27,15.08845399,0.0001692,53.2197,28.1458,107.1467,252.971,7.5232e-05,9.1e-06,0.0,0 STARLINK-5122,1 54179U 22141Y   23357.38573813  .00000910  00000-0  75232-4 0  9997,2 54179  53.2197  28.1458 0001692 107.1467 252.9710 15.08845399 63981,6917.864,95.437,540.899,538.558,0.0
54179.0,STARLINK-5122,PAYLOAD,2023-12-24 02:44:42,15.08837683,0.0001685,53.2184,24.875,103.9071,256.2108,2.5634e-05,1.2e-06,0.0,0 STARLINK-5122,1 54179U 22141Y   23358.11438629  .00000120  00000-0  25634-4 0  9998,2 54179  53.2184  24.8750 0001685 103.9071 256.2108 15.08837683 64326,6917.887,95.438,540.918,538.587,0.0
54179.0,STARLINK-5122,PAYLOAD,2023-12-24 07:30:52,15.08840994,0.0001695,53.2183,23.9822,110.2482,249.8693,5.0673e-05,5.19e-06,0.0,0 STARLINK-5122,1 54179U 22141Y   23358.31310328  .00000519  00000-0  50673-4 0  9998,2 54179  53.2183  23.9822 0001695 110.2482 249.8693 15.08840994 64127,6917.877,95.437,540.915,538.57,0.0
